{
  "type": "FeatureCollection",
  "features": [
    {
      "type": "Feature",
      "properties": {
        "norad_id": 40938,
        "name": "BEIDOU-3S IGSO-2S (C56)",
        "group": "beidou",
        "lat": 13.087534764725934,
        "lon": 69.39396874229479,
        "alt_km": 35554.73475395978,
        "timestamp": "2025-12-27T15:27:11.455914+00:00",
        "meta_object_name": "BEIDOU-3S IGSO-2S (C56)",
        "meta_object_id": "2015-053A",
        "meta_epoch": "2025-12-26T16:11:41.602848",
        "meta_mean_motion": 1.00266904,
        "meta_eccentricity": 0.0060693,
        "meta_inclination": 49.4889,
        "meta_ra_of_asc_node": 260.8421,
        "meta_arg_of_pericenter": 188.2714,
        "meta_mean_anomaly": 344.9526,
        "meta_ephemeris_type": 0,
        "meta_classification_type": "U",
        "meta_norad_cat_id": 40938,
        "meta_element_set_no": 999,
        "meta_rev_at_epoch": 3762,
        "meta_bstar": 0,
        "meta_mean_motion_dot": -1.24e-06,
        "meta_mean_motion_ddot": 0,
        "tle_line1": "1 40938U 15053A   25360.67478707 -.00000124  00000+0  00000+0 0  9996",
        "tle_line2": "2 40938  49.4889 260.8421 0060693 188.2714 344.9526  1.00266904 37625"
      },
      "geometry": {
        "type": "Point",
        "coordinates": [
          69.39396874229479,
          13.087534764725934
        ]
      }
    },
    {
      "type": "Feature",
      "properties": {
        "norad_id": 41434,
        "name": "BEIDOU-2 IGSO-6 (C13)",
        "group": "beidou",
        "lat": 19.31382767024888,
        "lon": 51.4607063215946,
        "alt_km": 36005.59042676446,
        "timestamp": "2025-12-27T15:27:11.455926+00:00",
        "meta_object_name": "BEIDOU-2 IGSO-6 (C13)",
        "meta_object_id": "2016-021A",
        "meta_epoch": "2025-12-25T02:21:14.682240",
        "meta_mean_motion": 1.00290736,
        "meta_eccentricity": 0.00608236,
        "meta_inclination": 59.9818,
        "meta_ra_of_asc_node": 39.7747,
        "meta_arg_of_pericenter": 230.5129,
        "meta_mean_anomaly": 312.5474,
        "meta_ephemeris_type": 0,
        "meta_classification_type": "U",
        "meta_norad_cat_id": 41434,
        "meta_element_set_no": 999,
        "meta_rev_at_epoch": 3573,
        "meta_bstar": 0,
        "meta_mean_motion_dot": -1.35e-06,
        "meta_mean_motion_ddot": 0,
        "tle_line1": "1 41434U 16021A   25359.09808660 -.00000135  00000+0  00000+0 0  9995",
        "tle_line2": "2 41434  59.9818  39.7747 0060823 230.5129 312.5474  1.00290736 35738"
      },
      "geometry": {
        "type": "Point",
        "coordinates": [
          51.4607063215946,
          19.31382767024888
        ]
      }
    },
    {
      "type": "Feature",
      "properties": {
        "norad_id": 41586,
        "name": "BEIDOU-2 G7 (C03)",
        "group": "beidou",
        "lat": 0.3484713262705712,
        "lon": 78.5605308971459,
        "alt_km": 35765.82852738556,
        "timestamp": "2025-12-27T15:27:11.455939+00:00",
        "meta_object_name": "BEIDOU-2 G7 (C03)",
        "meta_object_id": "2016-037A",
        "meta_epoch": "2025-12-26T15:50:23.467776",
        "meta_mean_motion": 1.00267732,
        "meta_eccentricity": 0.0005163,
        "meta_inclination": 1.7889,
        "meta_ra_of_asc_node": 67.91,
        "meta_arg_of_pericenter": 0.4521,
        "meta_mean_anomaly": 15.0455,
        "meta_ephemeris_type": 0,
        "meta_classification_type": "U",
        "meta_norad_cat_id": 41586,
        "meta_element_set_no": 999,
        "meta_rev_at_epoch": 516,
        "meta_bstar": 0,
        "meta_mean_motion_dot": -3.31e-06,
        "meta_mean_motion_ddot": 0,
        "tle_line1": "1 41586U 16037A   25360.65999384 -.00000331  00000+0  00000+0 0  9996",
        "tle_line2": "2 41586   1.7889  67.9100 0005163   0.4521  15.0455  1.00267732  5169"
      },
      "geometry": {
        "type": "Point",
        "coordinates": [
          78.5605308971459,
          0.3484713262705712
        ]
      }
    },
    {
      "type": "Feature",
      "properties": {
        "norad_id": 43001,
        "name": "BEIDOU-3 M1 (C19)",
        "group": "beidou",
        "lat": -36.47896977536973,
        "lon": -82.00729302876364,
        "alt_km": 21526.280120334955,
        "timestamp": "2025-12-27T15:27:11.455950+00:00",
        "meta_object_name": "BEIDOU-3 M1 (C19)",
        "meta_object_id": "2017-069A",
        "meta_epoch": "2025-12-25T03:49:47.920224",
        "meta_mean_motion": 1.86231313,
        "meta_eccentricity": 0.0009789,
        "meta_inclination": 56.5365,
        "meta_ra_of_asc_node": 68.8241,
        "meta_arg_of_pericenter": 302.2681,
        "meta_mean_anomaly": 57.6912,
        "meta_ephemeris_type": 0,
        "meta_classification_type": "U",
        "meta_norad_cat_id": 43001,
        "meta_element_set_no": 999,
        "meta_rev_at_epoch": 5536,
        "meta_bstar": 0,
        "meta_mean_motion_dot": -2.5e-07,
        "meta_mean_motion_ddot": 0,
        "tle_line1": "1 43001U 17069A   25359.15958241 -.00000025  00000+0  00000+0 0  9996",
        "tle_line2": "2 43001  56.5365  68.8241 0009789 302.2681  57.6912  1.86231313 55361"
      },
      "geometry": {
        "type": "Point",
        "coordinates": [
          -82.00729302876364,
          -36.47896977536973
        ]
      }
    },
    {
      "type": "Feature",
      "properties": {
        "norad_id": 43002,
        "name": "BEIDOU-3 M2 (C20)",
        "group": "beidou",
        "lat": -56.42037124205935,
        "lon": -26.949347468239164,
        "alt_km": 21524.882825822227,
        "timestamp": "2025-12-27T15:27:11.455961+00:00",
        "meta_object_name": "BEIDOU-3 M2 (C20)",
        "meta_object_id": "2017-069B",
        "meta_epoch": "2025-12-25T15:14:16.903968",
        "meta_mean_motion": 1.86231039,
        "meta_eccentricity": 0.0006764,
        "meta_inclination": 56.5366,
        "meta_ra_of_asc_node": 68.8439,
        "meta_arg_of_pericenter": 327.6836,
        "meta_mean_anomaly": 32.3283,
        "meta_ephemeris_type": 0,
        "meta_classification_type": "U",
        "meta_norad_cat_id": 43002,
        "meta_element_set_no": 999,
        "meta_rev_at_epoch": 5536,
        "meta_bstar": 0,
        "meta_mean_motion_dot": -2.7e-07,
        "meta_mean_motion_ddot": 0,
        "tle_line1": "1 43002U 17069B   25359.63491787 -.00000027  00000+0  00000+0 0  9999",
        "tle_line2": "2 43002  56.5366  68.8439 0006764 327.6836  32.3283  1.86231039 55361"
      },
      "geometry": {
        "type": "Point",
        "coordinates": [
          -26.949347468239164,
          -56.42037124205935
        ]
      }
    },
    {
      "type": "Feature",
      "properties": {
        "norad_id": 43107,
        "name": "BEIDOU-3 M7 (C27)",
        "group": "beidou",
        "lat": 53.14335468899454,
        "lon": 20.41533572515146,
        "alt_km": 21513.65094218934,
        "timestamp": "2025-12-27T15:27:11.455973+00:00",
        "meta_object_name": "BEIDOU-3 M7 (C27)",
        "meta_object_id": "2018-003A",
        "meta_epoch": "2025-12-26T23:43:35.331168",
        "meta_mean_motion": 1.86232541,
        "meta_eccentricity": 0.00029586,
        "meta_inclination": 54.484,
        "meta_ra_of_asc_node": 308.3202,
        "meta_arg_of_pericenter": 66.0283,
        "meta_mean_anomaly": 294.0099,
        "meta_ephemeris_type": 0,
        "meta_classification_type": "U",
        "meta_norad_cat_id": 43107,
        "meta_element_set_no": 999,
        "meta_rev_at_epoch": 5414,
        "meta_bstar": 0,
        "meta_mean_motion_dot": -5.9e-07,
        "meta_mean_motion_ddot": 0,
        "tle_line1": "1 43107U 18003A   25360.98860337 -.00000059  00000+0  00000+0 0  9990",
        "tle_line2": "2 43107  54.4840 308.3202 0002958  66.0283 294.0099  1.86232541 54148"
      },
      "geometry": {
        "type": "Point",
        "coordinates": [
          20.41533572515146,
          53.14335468899454
        ]
      }
    },
    {
      "type": "Feature",
      "properties": {
        "norad_id": 43108,
        "name": "BEIDOU-3 M8 (C28)",
        "group": "beidou",
        "lat": 46.93231675327746,
        "lon": 78.48856378575879,
        "alt_km": 21534.694479319434,
        "timestamp": "2025-12-27T15:27:11.455991+00:00",
        "meta_object_name": "BEIDOU-3 M8 (C28)",
        "meta_object_id": "2018-003B",
        "meta_epoch": "2025-12-24T05:58:21.185184",
        "meta_mean_motion": 1.86231107,
        "meta_eccentricity": 0.00045887,
        "meta_inclination": 54.4794,
        "meta_ra_of_asc_node": 308.398,
        "meta_arg_of_pericenter": 279.3969,
        "meta_mean_anomaly": 80.5568,
        "meta_ephemeris_type": 0,
        "meta_classification_type": "U",
        "meta_norad_cat_id": 43108,
        "meta_element_set_no": 999,
        "meta_rev_at_epoch": 5410,
        "meta_bstar": 0,
        "meta_mean_motion_dot": -5.4e-07,
        "meta_mean_motion_ddot": 0,
        "tle_line1": "1 43108U 18003B   25358.24885631 -.00000054  00000+0  00000+0 0  9996",
        "tle_line2": "2 43108  54.4794 308.3980 0004588 279.3969  80.5568  1.86231107 54103"
      },
      "geometry": {
        "type": "Point",
        "coordinates": [
          78.48856378575879,
          46.93231675327746
        ]
      }
    }
  ]
}